{
  "links" : {
    "next" : "https://api.nasa.gov/neo/rest/v1/feed?start_date=2009-07-09&end_date=2009-07-09&detailed=true&api_key=t0TVs3DtDT2H8Oy2Zy8m2eVrNsAVKAexjcZXUckd",
    "prev" : "https://api.nasa.gov/neo/rest/v1/feed?start_date=2009-07-07&end_date=2009-07-07&detailed=true&api_key=t0TVs3DtDT2H8Oy2Zy8m2eVrNsAVKAexjcZXUckd",
    "self" : "https://api.nasa.gov/neo/rest/v1/feed?start_date=2009-07-08&end_date=2009-07-08&detailed=true&api_key=t0TVs3DtDT2H8Oy2Zy8m2eVrNsAVKAexjcZXUckd"
  },
  "element_count" : 3,
  "near_earth_objects" : {
    "2009-07-08" : [ {
      "links" : {
        "self" : "https://api.nasa.gov/neo/rest/v1/neo/2301844?api_key=t0TVs3DtDT2H8Oy2Zy8m2eVrNsAVKAexjcZXUckd"
      },
      "neo_reference_id" : "2301844",
      "name" : "301844 (1990 UA)",
      "nasa_jpl_url" : "http://ssd.jpl.nasa.gov/sbdb.cgi?sstr=2301844",
      "absolute_magnitude_h" : 19.6,
      "estimated_diameter" : {
        "kilometers" : {
          "estimated_diameter_min" : 0.3195618867,
          "estimated_diameter_max" : 0.7145621017
        },
        "meters" : {
          "estimated_diameter_min" : 319.5618867213,
          "estimated_diameter_max" : 714.5621017269
        },
        "miles" : {
          "estimated_diameter_min" : 0.1985664891,
          "estimated_diameter_max" : 0.4440081677
        },
        "feet" : {
          "estimated_diameter_min" : 1048.4314204307,
          "estimated_diameter_max" : 2344.3639258298
        }
      },
      "is_potentially_hazardous_asteroid" : true,
      "close_approach_data" : [ {
        "close_approach_date" : "2009-07-08",
        "epoch_date_close_approach" : 1247036400000,
        "relative_velocity" : {
          "kilometers_per_second" : "11.8568447474",
          "kilometers_per_hour" : "42684.641090622",
          "miles_per_hour" : "26522.5760154479"
        },
        "miss_distance" : {
          "astronomical" : "0.2229660461",
          "lunar" : "86.733795166",
          "kilometers" : "33355246",
          "miles" : "20725988"
        },
        "orbiting_body" : "Earth"
      } ],
      "orbital_data" : {
        "orbit_id" : "40",
        "orbit_determination_date" : "2017-04-06 09:24:09",
        "orbit_uncertainty" : "0",
        "minimum_orbit_intersection" : ".0121492",
        "jupiter_tisserand_invariant" : "4.124",
        "epoch_osculation" : "2458000.5",
        "eccentricity" : ".5260041127675394",
        "semi_major_axis" : "1.642202390913847",
        "inclination" : ".9284967827031069",
        "ascending_node_longitude" : "104.2666836278587",
        "orbital_period" : "768.667372455815",
        "perihelion_distance" : ".778397179296477",
        "perihelion_argument" : "202.5739422892208",
        "aphelion_distance" : "2.506007602531217",
        "perihelion_time" : "2458107.854310903583",
        "mean_anomaly" : "309.7213576246706",
        "mean_motion" : ".4683430218324945",
        "equinox" : "J2000"
      }
    }, {
      "links" : {
        "self" : "https://api.nasa.gov/neo/rest/v1/neo/2457768?api_key=t0TVs3DtDT2H8Oy2Zy8m2eVrNsAVKAexjcZXUckd"
      },
      "neo_reference_id" : "2457768",
      "name" : "457768 (2009 KN4)",
      "nasa_jpl_url" : "http://ssd.jpl.nasa.gov/sbdb.cgi?sstr=2457768",
      "absolute_magnitude_h" : 18.3,
      "estimated_diameter" : {
        "kilometers" : {
          "estimated_diameter_min" : 0.5815070396,
          "estimated_diameter_max" : 1.30028927
        },
        "meters" : {
          "estimated_diameter_min" : 581.5070396458,
          "estimated_diameter_max" : 1300.2892700427
        },
        "miles" : {
          "estimated_diameter_min" : 0.3613316107,
          "estimated_diameter_max" : 0.807962044
        },
        "feet" : {
          "estimated_diameter_min" : 1907.8315559515,
          "estimated_diameter_max" : 4266.0410487267
        }
      },
      "is_potentially_hazardous_asteroid" : true,
      "close_approach_data" : [ {
        "close_approach_date" : "2009-07-08",
        "epoch_date_close_approach" : 1247036400000,
        "relative_velocity" : {
          "kilometers_per_second" : "16.944854527",
          "kilometers_per_hour" : "61001.476297092",
          "miles_per_hour" : "37903.9450913792"
        },
        "miss_distance" : {
          "astronomical" : "0.2006286194",
          "lunar" : "78.0445327759",
          "kilometers" : "30013616",
          "miles" : "18649596"
        },
        "orbiting_body" : "Earth"
      } ],
      "orbital_data" : {
        "orbit_id" : "31",
        "orbit_determination_date" : "2017-06-24 06:20:53",
        "orbit_uncertainty" : "0",
        "minimum_orbit_intersection" : ".0105122",
        "jupiter_tisserand_invariant" : "3.708",
        "epoch_osculation" : "2458000.5",
        "eccentricity" : ".5245845598590868",
        "semi_major_axis" : "1.940602310373693",
        "inclination" : "9.142568287439818",
        "ascending_node_longitude" : "308.2531223256738",
        "orbital_period" : "987.4230091047364",
        "perihelion_distance" : ".9225923015247824",
        "perihelion_argument" : "38.31218571398622",
        "aphelion_distance" : "2.958612319222604",
        "perihelion_time" : "2458022.856329862334",
        "mean_anomaly" : "351.8492088231393",
        "mean_motion" : ".3645853870940278",
        "equinox" : "J2000"
      }
    }, {
      "links" : {
        "self" : "https://api.nasa.gov/neo/rest/v1/neo/3283950?api_key=t0TVs3DtDT2H8Oy2Zy8m2eVrNsAVKAexjcZXUckd"
      },
      "neo_reference_id" : "3283950",
      "name" : "(2005 NJ63)",
      "nasa_jpl_url" : "http://ssd.jpl.nasa.gov/sbdb.cgi?sstr=3283950",
      "absolute_magnitude_h" : 21.0,
      "estimated_diameter" : {
        "kilometers" : {
          "estimated_diameter_min" : 0.1677084622,
          "estimated_diameter_max" : 0.3750075218
        },
        "meters" : {
          "estimated_diameter_min" : 167.7084621628,
          "estimated_diameter_max" : 375.0075217981
        },
        "miles" : {
          "estimated_diameter_min" : 0.1042091748,
          "estimated_diameter_max" : 0.2330187988
        },
        "feet" : {
          "estimated_diameter_min" : 550.2246310023,
          "estimated_diameter_max" : 1230.3396778159
        }
      },
      "is_potentially_hazardous_asteroid" : false,
      "close_approach_data" : [ {
        "close_approach_date" : "2009-07-08",
        "epoch_date_close_approach" : 1247036400000,
        "relative_velocity" : {
          "kilometers_per_second" : "14.7798385655",
          "kilometers_per_hour" : "53207.418835751",
          "miles_per_hour" : "33061.0208871365"
        },
        "miss_distance" : {
          "astronomical" : "0.2271735906",
          "lunar" : "88.3705291748",
          "kilometers" : "33984688",
          "miles" : "21117106"
        },
        "orbiting_body" : "Earth"
      } ],
      "orbital_data" : {
        "orbit_id" : "17",
        "orbit_determination_date" : "2017-04-06 09:10:45",
        "orbit_uncertainty" : "1",
        "minimum_orbit_intersection" : ".218349",
        "jupiter_tisserand_invariant" : "6.649",
        "epoch_osculation" : "2458000.5",
        "eccentricity" : ".4222274719336763",
        "semi_major_axis" : ".8692600885608228",
        "inclination" : "26.54810119733284",
        "ascending_node_longitude" : "120.8613869317667",
        "orbital_period" : "296.0213511175548",
        "perihelion_distance" : ".502234598914943",
        "perihelion_argument" : "1.718984416637956",
        "aphelion_distance" : "1.236285578206703",
        "perihelion_time" : "2457867.391659302383",
        "mean_anomaly" : "161.8768459445102",
        "mean_motion" : "1.216128494248505",
        "equinox" : "J2000"
      }
    } ]
  }
}